start=new Date('2022-05-19T00:00:00.000Z').valueOf();
sats=[{"OBJECT_TYPE":"PAYLOAD","MEAN_ELEMENT_THEORY":"SGP4","TLE_LINE2":"2 48364  53.0532 121.2490 0001763  60.1042 300.0122 15.06394763 57435","DECAY_DATE":null,"PERIAPSIS":"546.009","APOAPSIS":"548.451","SITE":"AFETR","TLE_LINE1":"1 48364U 21038M   22138.64801627  .00000313  00000-0  39929-4 0  9992","EPOCH":"2022-05-18T15:33:08.605728","MEAN_MOTION_DOT":"0.00000313","REF_FRAME":"TEME","FILE":"3452356","EPHEMERIS_TYPE":"0","OBJECT_ID":"2021-038M","LAUNCH_DATE":"2021-05-04","RA_OF_ASC_NODE":"121.2490","GP_ID":"203905210","REV_AT_EPOCH":"5743","MEAN_MOTION_DDOT":"0.0000000000000","BSTAR":"0.00003992900000","OBJECT_NAME":"STARLINK-2611","MEAN_MOTION":"15.06394763","SEMIMAJOR_AXIS":"6925.365","ARG_OF_PERICENTER":"60.1042","ELEMENT_SET_NO":"999","INCLINATION":"53.0532","TIME_SYSTEM":"UTC","CLASSIFICATION_TYPE":"U","COUNTRY_CODE":"US","PERIOD":"95.592","CENTER_NAME":"EARTH","ECCENTRICITY":"0.00017630","MEAN_ANOMALY":"300.0122","NORAD_CAT_ID":"48364","RCS_SIZE":"LARGE"},{"OBJECT_TYPE":"PAYLOAD","TLE_LINE2":"2 48365  53.0538 122.2477 0001965  51.8372 308.2793 15.06408563 57400","MEAN_ELEMENT_THEORY":"SGP4","APOAPSIS":"548.548","DECAY_DATE":null,"PERIAPSIS":"545.826","TLE_LINE1":"1 48365U 21038N   22138.42780285  .00004638  00000-0  32999-3 0  9998","EPOCH":"2022-05-18T10:16:02.166240","SITE":"AFETR","EPHEMERIS_TYPE":"0","FILE":"3451871","MEAN_MOTION_DOT":"0.00004638","REF_FRAME":"TEME","LAUNCH_DATE":"2021-05-04","OBJECT_ID":"2021-038N","REV_AT_EPOCH":"5740","RA_OF_ASC_NODE":"122.2477","GP_ID":"203872537","BSTAR":"0.00032999000000","MEAN_MOTION_DDOT":"0.0000000000000","OBJECT_NAME":"STARLINK-2608","SEMIMAJOR_AXIS":"6925.322","MEAN_MOTION":"15.06408563","TIME_SYSTEM":"UTC","INCLINATION":"53.0538","ELEMENT_SET_NO":"999","ARG_OF_PERICENTER":"51.8372","CENTER_NAME":"EARTH","PERIOD":"95.592","COUNTRY_CODE":"US","CLASSIFICATION_TYPE":"U","MEAN_ANOMALY":"308.2793","ECCENTRICITY":"0.00019650","RCS_SIZE":"LARGE","NORAD_CAT_ID":"48365"},{"MEAN_ANOMALY":"290.8711","ECCENTRICITY":"0.00020540","COUNTRY_CODE":"US","CLASSIFICATION_TYPE":"U","CENTER_NAME":"EARTH","PERIOD":"95.592","RCS_SIZE":"LARGE","NORAD_CAT_ID":"48366","OBJECT_NAME":"STARLINK-2631","MEAN_MOTION_DDOT":"0.0000000000000","BSTAR":"-0.00000401160000","TIME_SYSTEM":"UTC","INCLINATION":"53.0558","ELEMENT_SET_NO":"999","ARG_OF_PERICENTER":"69.2498","SEMIMAJOR_AXIS":"6925.328","MEAN_MOTION":"15.06406816","REF_FRAME":"TEME","MEAN_MOTION_DOT":"-0.00000342","FILE":"3452165","EPHEMERIS_TYPE":"0","REV_AT_EPOCH":"5804","GP_ID":"203879283","RA_OF_ASC_NODE":"117.5917","OBJECT_ID":"2021-038P","LAUNCH_DATE":"2021-05-04","MEAN_ELEMENT_THEORY":"SGP4","TLE_LINE2":"2 48366  53.0558 117.5917 0002054  69.2498 290.8711 15.06406816 58047","OBJECT_TYPE":"PAYLOAD","SITE":"AFETR","TLE_LINE1":"1 48366U 21038P   22138.34901271 -.00000342  00000-0 -40116-5 0  9992","EPOCH":"2022-05-18T08:22:34.698144","DECAY_DATE":null,"PERIAPSIS":"545.770","APOAPSIS":"548.615"},{"BSTAR":"0.00008931400000","MEAN_MOTION_DDOT":"0.0000000000000","OBJECT_NAME":"STARLINK-2643","SEMIMAJOR_AXIS":"6925.330","MEAN_MOTION":"15.06406043","TIME_SYSTEM":"UTC","INCLINATION":"53.0560","ELEMENT_SET_NO":"999","ARG_OF_PERICENTER":"60.0237","PERIOD":"95.592","CENTER_NAME":"EARTH","COUNTRY_CODE":"US","CLASSIFICATION_TYPE":"U","MEAN_ANOMALY":"300.0961","ECCENTRICITY":"0.00021110","RCS_SIZE":"LARGE","NORAD_CAT_ID":"48367","OBJECT_TYPE":"PAYLOAD","TLE_LINE2":"2 48367  53.0560 116.1297 0002111  60.0237 300.0961 15.06406043 57504","MEAN_ELEMENT_THEORY":"SGP4","APOAPSIS":"548.657","PERIAPSIS":"545.733","DECAY_DATE":null,"EPOCH":"2022-05-18T16:14:57.964128","TLE_LINE1":"1 48367U 21038Q   22138.67705977  .00001049  00000-0  89314-4 0  9999","SITE":"AFETR","FILE":"3452356","EPHEMERIS_TYPE":"0","MEAN_MOTION_DOT":"0.00001049","REF_FRAME":"TEME","LAUNCH_DATE":"2021-05-04","OBJECT_ID":"2021-038Q","REV_AT_EPOCH":"5750","GP_ID":"203904460","RA_OF_ASC_NODE":"116.1297"},{"OBJECT_ID":"2021-038R","LAUNCH_DATE":"2021-05-04","REV_AT_EPOCH":"5750","GP_ID":"203905710","RA_OF_ASC_NODE":"116.3307","REF_FRAME":"TEME","MEAN_MOTION_DOT":"0.00000137","EPHEMERIS_TYPE":"0","FILE":"3452356","PERIAPSIS":"545.681","DECAY_DATE":null,"APOAPSIS":"548.762","SITE":"AFETR","TLE_LINE1":"1 48368U 21038R   22138.62820390  .00000137  00000-0  28150-4 0  9990","EPOCH":"2022-05-18T15:04:36.816960","OBJECT_TYPE":"PAYLOAD","MEAN_ELEMENT_THEORY":"SGP4","TLE_LINE2":"2 48368  53.0544 116.3307 0002225  47.4160 312.7016 15.06397424 57504","RCS_SIZE":"LARGE","NORAD_CAT_ID":"48368","COUNTRY_CODE":"US","CLASSIFICATION_TYPE":"U","CENTER_NAME":"EARTH","PERIOD":"95.592","MEAN_ANOMALY":"312.7016","ECCENTRICITY":"0.00022250","SEMIMAJOR_AXIS":"6925.356","MEAN_MOTION":"15.06397424","TIME_SYSTEM":"UTC","INCLINATION":"53.0544","ELEMENT_SET_NO":"999","ARG_OF_PERICENTER":"47.4160","MEAN_MOTION_DDOT":"0.0000000000000","BSTAR":"0.00002815000000","OBJECT_NAME":"STARLINK-2623"},{"BSTAR":"0.00006375000000","MEAN_MOTION_DDOT":"0.0000000000000","OBJECT_NAME":"STARLINK-2641","MEAN_MOTION":"15.06409776","SEMIMAJOR_AXIS":"6925.319","ARG_OF_PERICENTER":"50.4203","ELEMENT_SET_NO":"999","INCLINATION":"53.0567","TIME_SYSTEM":"UTC","CENTER_NAME":"EARTH","PERIOD":"95.592","CLASSIFICATION_TYPE":"U","COUNTRY_CODE":"US","ECCENTRICITY":"0.00023200","MEAN_ANOMALY":"309.6991","NORAD_CAT_ID":"48369","RCS_SIZE":"LARGE","OBJECT_TYPE":"PAYLOAD","TLE_LINE2":"2 48369  53.0567 116.1358 0002320  50.4203 309.6991 15.06409776 57503","MEAN_ELEMENT_THEORY":"SGP4","APOAPSIS":"548.790","DECAY_DATE":null,"PERIAPSIS":"545.577","TLE_LINE1":"1 48369U 21038S   22138.67337376  .00000668  00000-0  63750-4 0  9997","EPOCH":"2022-05-18T16:09:39.492864","SITE":"AFETR","FILE":"3452356","EPHEMERIS_TYPE":"0","REF_FRAME":"TEME","MEAN_MOTION_DOT":"0.00000668","LAUNCH_DATE":"2021-05-04","OBJECT_ID":"2021-038S","GP_ID":"203905961","RA_OF_ASC_NODE":"116.1358","REV_AT_EPOCH":"5750"},{"MEAN_MOTION":"15.06398642","SEMIMAJOR_AXIS":"6925.353","ELEMENT_SET_NO":"999","ARG_OF_PERICENTER":"45.8475","INCLINATION":"53.0563","TIME_SYSTEM":"UTC","MEAN_MOTION_DDOT":"0.0000000000000","BSTAR":"0.00006432400000","OBJECT_NAME":"STARLINK-2621","NORAD_CAT_ID":"48370","RCS_SIZE":"LARGE","CLASSIFICATION_TYPE":"U","COUNTRY_CODE":"US","CENTER_NAME":"EARTH","PERIOD":"95.592","ECCENTRICITY":"0.00022010","MEAN_ANOMALY":"314.2695","PERIAPSIS":"545.693","DECAY_DATE":null,"APOAPSIS":"548.742","SITE":"AFETR","EPOCH":"2022-05-18T16:04:21.614304","TLE_LINE1":"1 48370U 21038T   22138.66969461  .00000676  00000-0  64324-4 0  9991","OBJECT_TYPE":"PAYLOAD","TLE_LINE2":"2 48370  53.0563 116.1542 0002201  45.8475 314.2695 15.06398642 57505","MEAN_ELEMENT_THEORY":"SGP4","OBJECT_ID":"2021-038T","LAUNCH_DATE":"2021-05-04","RA_OF_ASC_NODE":"116.1542","GP_ID":"203904710","REV_AT_EPOCH":"5750","MEAN_MOTION_DOT":"0.00000676","REF_FRAME":"TEME","FILE":"3452356","EPHEMERIS_TYPE":"0"},{"LAUNCH_DATE":"2021-05-04","OBJECT_ID":"2021-038U","REV_AT_EPOCH":"5750","GP_ID":"203904959","RA_OF_ASC_NODE":"116.1770","EPHEMERIS_TYPE":"0","FILE":"3452356","MEAN_MOTION_DOT":"0.00000621","REF_FRAME":"TEME","APOAPSIS":"548.579","PERIAPSIS":"545.813","DECAY_DATE":null,"TLE_LINE1":"1 48371U 21038U   22138.66600136  .00000621  00000-0  60588-4 0  9991","EPOCH":"2022-05-18T15:59:02.517504","SITE":"AFETR","OBJECT_TYPE":"PAYLOAD","MEAN_ELEMENT_THEORY":"SGP4","TLE_LINE2":"2 48371  53.0546 116.1770 0001997  54.2731 305.8443 15.06405856 57503","RCS_SIZE":"LARGE","NORAD_CAT_ID":"48371","CENTER_NAME":"EARTH","PERIOD":"95.592","COUNTRY_CODE":"US","CLASSIFICATION_TYPE":"U","MEAN_ANOMALY":"305.8443","ECCENTRICITY":"0.00019970","SEMIMAJOR_AXIS":"6925.331","MEAN_MOTION":"15.06405856","TIME_SYSTEM":"UTC","ARG_OF_PERICENTER":"54.2731","ELEMENT_SET_NO":"999","INCLINATION":"53.0546","BSTAR":"0.00006058800000","MEAN_MOTION_DDOT":"0.0000000000000","OBJECT_NAME":"STARLINK-2589"},{"BSTAR":"0.00012940000000","MEAN_MOTION_DDOT":"0.0000000000000","OBJECT_NAME":"STARLINK-2572","SEMIMAJOR_AXIS":"6925.325","MEAN_MOTION":"15.06407685","TIME_SYSTEM":"UTC","INCLINATION":"53.0544","ELEMENT_SET_NO":"999","ARG_OF_PERICENTER":"43.8829","CENTER_NAME":"EARTH","PERIOD":"95.592","COUNTRY_CODE":"US","CLASSIFICATION_TYPE":"U","MEAN_ANOMALY":"316.2348","ECCENTRICITY":"0.00023810","RCS_SIZE":"LARGE","NORAD_CAT_ID":"48372","OBJECT_TYPE":"PAYLOAD","TLE_LINE2":"2 48372  53.0544 116.1930 0002381  43.8829 316.2348 15.06407685 57502","MEAN_ELEMENT_THEORY":"SGP4","APOAPSIS":"548.839","PERIAPSIS":"545.541","DECAY_DATE":null,"EPOCH":"2022-05-18T15:53:44.579328","TLE_LINE1":"1 48372U 21038V   22138.66232152  .00001646  00000-0  12940-3 0  9997","SITE":"AFETR","EPHEMERIS_TYPE":"0","FILE":"3452356","REF_FRAME":"TEME","MEAN_MOTION_DOT":"0.00001646","LAUNCH_DATE":"2021-05-04","OBJECT_ID":"2021-038V","REV_AT_EPOCH":"5750","GP_ID":"203905211","RA_OF_ASC_NODE":"116.1930"},{"OBJECT_NAME":"STARLINK-2609","BSTAR":"0.00011405000000","MEAN_MOTION_DDOT":"0.0000000000000","ELEMENT_SET_NO":"999","ARG_OF_PERICENTER":"64.9605","INCLINATION":"53.0521","TIME_SYSTEM":"UTC","MEAN_MOTION":"15.06404996","SEMIMAJOR_AXIS":"6925.333","ECCENTRICITY":"0.00017160","MEAN_ANOMALY":"295.1562","CENTER_NAME":"EARTH","PERIOD":"95.592","CLASSIFICATION_TYPE":"U","COUNTRY_CODE":"US","NORAD_CAT_ID":"48373","RCS_SIZE":"LARGE","MEAN_ELEMENT_THEORY":"SGP4","TLE_LINE2":"2 48373  53.0521 117.6948 0001716  64.9605 295.1562 15.06404996 57459","OBJECT_TYPE":"PAYLOAD","EPOCH":"2022-05-18T07:50:43.802304","TLE_LINE1":"1 48373U 21038W   22138.32689586  .00001418  00000-0  11405-3 0  9990","SITE":"AFETR","APOAPSIS":"548.387","PERIAPSIS":"546.010","DECAY_DATE":null,"EPHEMERIS_TYPE":"0","FILE":"3451871","MEAN_MOTION_DOT":"0.00001418","REF_FRAME":"TEME","RA_OF_ASC_NODE":"117.6948","GP_ID":"203872538","REV_AT_EPOCH":"5745","LAUNCH_DATE":"2021-05-04","OBJECT_ID":"2021-038W"}];
